start=new Date('2022-05-29T00:00:00.000Z').valueOf();
sats=[{"CENTER_NAME":"EARTH","CLASSIFICATION_TYPE":"U","NORAD_CAT_ID":"44720","MEAN_ELEMENT_THEORY":"SGP4","BSTAR":"-0.00829730000000","EPOCH":"2022-05-28T19:54:30.864960","ELEMENT_SET_NO":"999","PERIAPSIS":"545.621","OBJECT_TYPE":"PAYLOAD","SITE":"AFETR","COUNTRY_CODE":"US","TLE_LINE2":"2 44720  53.0544 265.5227 0001363  69.3733 290.7402 15.06611646140794","APOAPSIS":"547.509","EPHEMERIS_TYPE":"0","LAUNCH_DATE":"2019-11-11","PERIOD":"95.579","TLE_LINE1":"1 44720U 19074H   22148.82952390 -.00122460  00000-0 -82973-2 0  9991","RA_OF_ASC_NODE":"265.5227","MEAN_MOTION_DDOT":"0.0000000000000","OBJECT_NAME":"STARLINK-1014","ECCENTRICITY":"0.00013630","MEAN_MOTION":"15.06611646","FILE":"3469478","ARG_OF_PERICENTER":"69.3733","GP_ID":"204773907","DECAY_DATE":null,"REV_AT_EPOCH":"14079","MEAN_MOTION_DOT":"-0.00122460","REF_FRAME":"TEME","RCS_SIZE":"LARGE","MEAN_ANOMALY":"290.7402","SEMIMAJOR_AXIS":"6924.700","OBJECT_ID":"2019-074H","INCLINATION":"53.0544","TIME_SYSTEM":"UTC"},{"SEMIMAJOR_AXIS":"6925.309","OBJECT_ID":"2019-074J","INCLINATION":"53.0541","TIME_SYSTEM":"UTC","MEAN_ANOMALY":"300.8260","DECAY_DATE":null,"MEAN_MOTION_DOT":"0.00006036","REV_AT_EPOCH":"14059","RCS_SIZE":"LARGE","REF_FRAME":"TEME","FILE":"3469840","ARG_OF_PERICENTER":"59.2888","GP_ID":"204801887","TLE_LINE1":"1 44721U 19074J   22148.68670217  .00006036  00000-0  42363-3 0  9999","RA_OF_ASC_NODE":"266.1868","ECCENTRICITY":"0.00016150","MEAN_MOTION_DDOT":"0.0000000000000","OBJECT_NAME":"STARLINK-1015","MEAN_MOTION":"15.06413038","LAUNCH_DATE":"2019-11-11","PERIOD":"95.591","PERIAPSIS":"546.055","OBJECT_TYPE":"PAYLOAD","SITE":"AFETR","TLE_LINE2":"2 44721  53.0541 266.1868 0001615  59.2888 300.8260 15.06413038140597","COUNTRY_CODE":"US","APOAPSIS":"548.292","EPHEMERIS_TYPE":"0","CENTER_NAME":"EARTH","CLASSIFICATION_TYPE":"U","NORAD_CAT_ID":"44721","MEAN_ELEMENT_THEORY":"SGP4","BSTAR":"0.00042363000000","EPOCH":"2022-05-28T16:28:51.067488","ELEMENT_SET_NO":"999"},{"MEAN_ANOMALY":"288.1156","SEMIMAJOR_AXIS":"6925.361","INCLINATION":"53.0561","TIME_SYSTEM":"UTC","OBJECT_ID":"2019-074K","FILE":"3469840","ARG_OF_PERICENTER":"71.9988","GP_ID":"204802138","DECAY_DATE":null,"MEAN_MOTION_DOT":"0.00000948","REV_AT_EPOCH":"14060","REF_FRAME":"TEME","RCS_SIZE":"LARGE","LAUNCH_DATE":"2019-11-11","PERIOD":"95.592","OBJECT_NAME":"STARLINK-1016","MEAN_MOTION_DDOT":"0.0000000000000","ECCENTRICITY":"0.00014200","TLE_LINE1":"1 44722U 19074K   22148.69039290  .00000948  00000-0  82522-4 0  9999","RA_OF_ASC_NODE":"266.1690","MEAN_MOTION":"15.06396052","CLASSIFICATION_TYPE":"U","NORAD_CAT_ID":"44722","CENTER_NAME":"EARTH","MEAN_ELEMENT_THEORY":"SGP4","BSTAR":"0.00008252200000","ELEMENT_SET_NO":"999","EPOCH":"2022-05-28T16:34:09.946560","PERIAPSIS":"546.242","OBJECT_TYPE":"PAYLOAD","SITE":"AFETR","TLE_LINE2":"2 44722  53.0561 266.1690 0001420  71.9988 288.1156 15.06396052140609","COUNTRY_CODE":"US","EPHEMERIS_TYPE":"0","APOAPSIS":"548.209"},{"GP_ID":"204802383","FILE":"3469840","ARG_OF_PERICENTER":"67.9975","RCS_SIZE":"LARGE","REF_FRAME":"TEME","DECAY_DATE":null,"MEAN_MOTION_DOT":"0.00001541","REV_AT_EPOCH":"14060","MEAN_ANOMALY":"292.1174","OBJECT_ID":"2019-074L","TIME_SYSTEM":"UTC","INCLINATION":"53.0554","SEMIMAJOR_AXIS":"6925.349","MEAN_ELEMENT_THEORY":"SGP4","BSTAR":"0.00012231000000","EPOCH":"2022-05-28T16:55:23.190528","ELEMENT_SET_NO":"999","CENTER_NAME":"EARTH","CLASSIFICATION_TYPE":"U","NORAD_CAT_ID":"44723","COUNTRY_CODE":"US","TLE_LINE2":"2 44723  53.0554 266.1097 0001500  67.9975 292.1174 15.06399973140603","EPHEMERIS_TYPE":"0","APOAPSIS":"548.252","OBJECT_TYPE":"PAYLOAD","PERIAPSIS":"546.175","SITE":"AFETR","PERIOD":"95.592","LAUNCH_DATE":"2019-11-11","MEAN_MOTION":"15.06399973","TLE_LINE1":"1 44723U 19074L   22148.70512952  .00001541  00000-0  12231-3 0  9992","RA_OF_ASC_NODE":"266.1097","ECCENTRICITY":"0.00015000","MEAN_MOTION_DDOT":"0.0000000000000","OBJECT_NAME":"STARLINK-1017"},{"REV_AT_EPOCH":"14060","MEAN_MOTION_DOT":"-0.00000119","DECAY_DATE":null,"REF_FRAME":"TEME","RCS_SIZE":"LARGE","ARG_OF_PERICENTER":"58.5764","FILE":"3469840","GP_ID":"204801637","SEMIMAJOR_AXIS":"6925.334","OBJECT_ID":"2019-074M","TIME_SYSTEM":"UTC","INCLINATION":"53.0562","MEAN_ANOMALY":"301.5387","SITE":"AFETR","PERIAPSIS":"546.050","OBJECT_TYPE":"PAYLOAD","APOAPSIS":"548.347","EPHEMERIS_TYPE":"0","TLE_LINE2":"2 44724  53.0562 265.9785 0001658  58.5764 301.5387 15.06404851140603","COUNTRY_CODE":"US","CENTER_NAME":"EARTH","NORAD_CAT_ID":"44724","CLASSIFICATION_TYPE":"U","EPOCH":"2022-05-28T17:37:50.790432","ELEMENT_SET_NO":"999","BSTAR":"0.00001089700000","MEAN_ELEMENT_THEORY":"SGP4","TLE_LINE1":"1 44724U 19074M   22148.73461563 -.00000119  00000-0  10897-4 0  9995","RA_OF_ASC_NODE":"265.9785","OBJECT_NAME":"STARLINK-1019","MEAN_MOTION_DDOT":"0.0000000000000","ECCENTRICITY":"0.00016580","MEAN_MOTION":"15.06404851","LAUNCH_DATE":"2019-11-11","PERIOD":"95.592"},{"MEAN_MOTION":"15.06408091","RA_OF_ASC_NODE":"286.2308","TLE_LINE1":"1 44725U 19074N   22148.67379110  .00001744  00000-0  13592-3 0  9993","MEAN_MOTION_DDOT":"0.0000000000000","ECCENTRICITY":"0.00014150","OBJECT_NAME":"STARLINK-1020","PERIOD":"95.592","LAUNCH_DATE":"2019-11-11","APOAPSIS":"548.169","EPHEMERIS_TYPE":"0","TLE_LINE2":"2 44725  53.0556 286.2308 0001415  67.9857 292.1283 15.06408091140310","COUNTRY_CODE":"US","SITE":"AFETR","OBJECT_TYPE":"PAYLOAD","PERIAPSIS":"546.209","EPOCH":"2022-05-28T16:10:15.551040","ELEMENT_SET_NO":"999","BSTAR":"0.00013592000000","MEAN_ELEMENT_THEORY":"SGP4","CENTER_NAME":"EARTH","NORAD_CAT_ID":"44725","CLASSIFICATION_TYPE":"U","OBJECT_ID":"2019-074N","TIME_SYSTEM":"UTC","INCLINATION":"53.0556","SEMIMAJOR_AXIS":"6925.324","MEAN_ANOMALY":"292.1283","REF_FRAME":"TEME","RCS_SIZE":"LARGE","MEAN_MOTION_DOT":"0.00001744","REV_AT_EPOCH":"14031","DECAY_DATE":null,"GP_ID":"204801387","ARG_OF_PERICENTER":"67.9857","FILE":"3469840"},{"MEAN_ANOMALY":"288.0491","INCLINATION":"53.0543","TIME_SYSTEM":"UTC","OBJECT_ID":"2019-074P","SEMIMAJOR_AXIS":"6925.309","GP_ID":"204802639","FILE":"3469840","ARG_OF_PERICENTER":"72.0660","REF_FRAME":"TEME","RCS_SIZE":"LARGE","DECAY_DATE":null,"MEAN_MOTION_DOT":"0.00001433","REV_AT_EPOCH":"14060","PERIOD":"95.591","LAUNCH_DATE":"2019-11-11","MEAN_MOTION":"15.06412769","MEAN_MOTION_DDOT":"0.0000000000000","ECCENTRICITY":"0.00014940","OBJECT_NAME":"STARLINK-1021","TLE_LINE1":"1 44726U 19074P   22148.73092982  .00001433  00000-0  11505-3 0  9997","RA_OF_ASC_NODE":"265.9819","MEAN_ELEMENT_THEORY":"SGP4","BSTAR":"0.00011505000000","EPOCH":"2022-05-28T17:32:32.336448","ELEMENT_SET_NO":"999","CLASSIFICATION_TYPE":"U","NORAD_CAT_ID":"44726","CENTER_NAME":"EARTH","TLE_LINE2":"2 44726  53.0543 265.9819 0001494  72.0660 288.0491 15.06412769140608","COUNTRY_CODE":"US","EPHEMERIS_TYPE":"0","APOAPSIS":"548.209","PERIAPSIS":"546.140","OBJECT_TYPE":"PAYLOAD","SITE":"AFETR"},{"MEAN_ANOMALY":"292.3968","SEMIMAJOR_AXIS":"6925.297","INCLINATION":"53.0550","TIME_SYSTEM":"UTC","OBJECT_ID":"2019-074Q","ARG_OF_PERICENTER":"67.7193","FILE":"3469840","GP_ID":"204802884","MEAN_MOTION_DOT":"0.00005097","REV_AT_EPOCH":"14006","DECAY_DATE":null,"REF_FRAME":"TEME","RCS_SIZE":"LARGE","LAUNCH_DATE":"2019-11-11","PERIOD":"95.591","MEAN_MOTION_DDOT":"0.0000000000000","OBJECT_NAME":"STARLINK-1022","ECCENTRICITY":"0.00016190","RA_OF_ASC_NODE":"305.8261","TLE_LINE1":"1 44727U 19074Q   22148.76684020  .00005097  00000-0  36066-3 0  9990","MEAN_MOTION":"15.06416666","NORAD_CAT_ID":"44727","CLASSIFICATION_TYPE":"U","CENTER_NAME":"EARTH","EPOCH":"2022-05-28T18:24:14.993280","ELEMENT_SET_NO":"999","MEAN_ELEMENT_THEORY":"SGP4","BSTAR":"0.00036066000000","SITE":"AFETR","OBJECT_TYPE":"PAYLOAD","PERIAPSIS":"546.041","APOAPSIS":"548.284","EPHEMERIS_TYPE":"0","COUNTRY_CODE":"US","TLE_LINE2":"2 44727  53.0550 305.8261 0001619  67.7193 292.3968 15.06416666140060"},{"ELEMENT_SET_NO":"999","EPOCH":"2022-05-28T16:19:17.330880","MEAN_ELEMENT_THEORY":"SGP4","BSTAR":"0.00164220000000","CENTER_NAME":"EARTH","NORAD_CAT_ID":"44729","CLASSIFICATION_TYPE":"U","APOAPSIS":"526.269","EPHEMERIS_TYPE":"0","TLE_LINE2":"2 44729  53.0026 276.9289 0000558  93.5643 266.5412 15.13386267140413","COUNTRY_CODE":"US","SITE":"AFETR","PERIAPSIS":"525.499","OBJECT_TYPE":"PAYLOAD","PERIOD":"95.151","LAUNCH_DATE":"2019-11-11","MEAN_MOTION":"15.13386267","TLE_LINE1":"1 44729U 19074S   22148.68006170  .00029469  00000-0  16422-2 0  9999","RA_OF_ASC_NODE":"276.9289","ECCENTRICITY":"0.00005580","MEAN_MOTION_DDOT":"0.0000000000000","OBJECT_NAME":"STARLINK-1024","GP_ID":"204801137","ARG_OF_PERICENTER":"93.5643","FILE":"3469840","REF_FRAME":"TEME","RCS_SIZE":"LARGE","MEAN_MOTION_DOT":"0.00029469","REV_AT_EPOCH":"14041","DECAY_DATE":null,"MEAN_ANOMALY":"266.5412","OBJECT_ID":"2019-074S","TIME_SYSTEM":"UTC","INCLINATION":"53.0026","SEMIMAJOR_AXIS":"6904.019"},{"EPOCH":"2022-05-28T19:23:59.818272","ELEMENT_SET_NO":"999","BSTAR":"0.00002255600000","MEAN_ELEMENT_THEORY":"SGP4","CENTER_NAME":"EARTH","NORAD_CAT_ID":"44731","CLASSIFICATION_TYPE":"U","APOAPSIS":"548.418","EPHEMERIS_TYPE":"0","TLE_LINE2":"2 44731  53.0561 265.6332 0001775  74.8425 285.2760 15.06408026140612","COUNTRY_CODE":"US","SITE":"AFETR","PERIAPSIS":"545.960","OBJECT_TYPE":"PAYLOAD","PERIOD":"95.592","LAUNCH_DATE":"2019-11-11","MEAN_MOTION":"15.06408026","TLE_LINE1":"1 44731U 19074U   22148.80833123  .00000054  00000-0  22556-4 0  9998","RA_OF_ASC_NODE":"265.6332","MEAN_MOTION_DDOT":"0.0000000000000","ECCENTRICITY":"0.00017750","OBJECT_NAME":"STARLINK-1026","GP_ID":"204801888","ARG_OF_PERICENTER":"74.8425","FILE":"3469840","REF_FRAME":"TEME","RCS_SIZE":"LARGE","REV_AT_EPOCH":"14061","MEAN_MOTION_DOT":"0.00000054","DECAY_DATE":null,"MEAN_ANOMALY":"285.2760","OBJECT_ID":"2019-074U","TIME_SYSTEM":"UTC","INCLINATION":"53.0561","SEMIMAJOR_AXIS":"6925.324"}];
